STARLINK - 2019-029T               
1 44252U 19029T   19146.90871471  .00002278  00000-0  60654-4 0  9990
2 44252  53.0007 161.9968 0006017 275.2383 212.0325 15.42770778   483